{
  "zipcodes": [
    { "zip": "20101", "city": "Dulles", "state": "VA" },
    { "zip": "20105", "city": "Aldie", "state": "VA" },
    { "zip": "20109", "city": "Manassas", "state": "VA" },
    { "zip": "20110", "city": "Manassas", "state": "VA" },
    { "zip": "20120", "city": "Centreville", "state": "VA" },
    { "zip": "20121", "city": "Centreville", "state": "VA" },
    { "zip": "20124", "city": "Clifton", "state": "VA" },
    { "zip": "20132", "city": "Purcellville", "state": "VA" },
    { "zip": "20136", "city": "Bristow", "state": "VA" },
    { "zip": "20147", "city": "Ashburn", "state": "VA" },
    { "zip": "20148", "city": "Ashburn", "state": "VA" },
    { "zip": "20151", "city": "Chantilly", "state": "VA" },
    { "zip": "20152", "city": "Chantilly", "state": "VA" },
    { "zip": "20155", "city": "Gainesville", "state": "VA" },
    { "zip": "20164", "city": "Sterling", "state": "VA" },
    { "zip": "20165", "city": "Sterling", "state": "VA" },
    { "zip": "20166", "city": "Sterling", "state": "VA" },
    { "zip": "20170", "city": "Herndon", "state": "VA" },
    { "zip": "20171", "city": "Herndon", "state": "VA" },
    { "zip": "22003", "city": "Annandale", "state": "VA" },
    { "zip": "22015", "city": "Burke", "state": "VA" },
    { "zip": "22025", "city": "Dumfries", "state": "VA" },
    { "zip": "22030", "city": "Fairfax", "state": "VA" },
    { "zip": "22031", "city": "Fairfax", "state": "VA" },
    { "zip": "22032", "city": "Fairfax", "state": "VA" },
    { "zip": "22033", "city": "Fairfax", "state": "VA" },
    { "zip": "22039", "city": "Fairfax Station", "state": "VA" },
    { "zip": "22042", "city": "Falls Church", "state": "VA" },
    { "zip": "22043", "city": "Falls Church", "state": "VA" },
    { "zip": "22044", "city": "Falls Church", "state": "VA" },
    { "zip": "22046", "city": "Falls Church", "state": "VA" },
    { "zip": "22101", "city": "McLean", "state": "VA" },
    { "zip": "22102", "city": "McLean", "state": "VA" },
    { "zip": "22124", "city": "Oakton", "state": "VA" },
    { "zip": "22150", "city": "Springfield", "state": "VA" },
    { "zip": "22151", "city": "Springfield", "state": "VA" },
    { "zip": "22152", "city": "Springfield", "state": "VA" },
    { "zip": "22153", "city": "Springfield", "state": "VA" },
    { "zip": "22301", "city": "Alexandria", "state": "VA" },
    { "zip": "22302", "city": "Alexandria", "state": "VA" },
    { "zip": "22304", "city": "Alexandria", "state": "VA" },
    { "zip": "22305", "city": "Alexandria", "state": "VA" },
    { "zip": "22306", "city": "Alexandria", "state": "VA" },
    { "zip": "22307", "city": "Alexandria", "state": "VA" },
    { "zip": "22308", "city": "Alexandria", "state": "VA" },
    { "zip": "22309", "city": "Alexandria", "state": "VA" },
    { "zip": "22310", "city": "Alexandria", "state": "VA" },
    { "zip": "22311", "city": "Alexandria", "state": "VA" },
    { "zip": "22312", "city": "Alexandria", "state": "VA" },
    { "zip": "22314", "city": "Alexandria", "state": "VA" }
  ]
}
